start=new Date('2022-03-23T00:00:00.000Z').valueOf();
sats=[{"LAUNCH_DATE":"2020-06-04","BSTAR":"0.00000841320000","NORAD_CAT_ID":"45700","RCS_SIZE":"LARGE","TIME_SYSTEM":"UTC","EPOCH":"2022-03-22T14:58:15.713472","CENTER_NAME":"EARTH","PERIAPSIS":"546.128","FILE":"3370190","MEAN_MOTION":"15.06402083","TLE_LINE2":"2 45700  53.0538  57.2408 0001558  72.8258 287.2901 15.06402083100895","RA_OF_ASC_NODE":"57.2408","PERIOD":"95.592","SEMIMAJOR_AXIS":"6925.342","INCLINATION":"53.0538","ELEMENT_SET_NO":"999","ECCENTRICITY":"0.00015580","OBJECT_NAME":"STARLINK-1400","OBJECT_TYPE":"PAYLOAD","MEAN_ANOMALY":"287.2901","MEAN_MOTION_DDOT":"0.0000000000000","TLE_LINE1":"1 45700U 20035AV  22081.62379298 -.00000156  00000-0  84132-5 0  9991","CLASSIFICATION_TYPE":"U","APOAPSIS":"548.286","COUNTRY_CODE":"US","EPHEMERIS_TYPE":"0","MEAN_ELEMENT_THEORY":"SGP4","DECAY_DATE":null,"GP_ID":"199427057","SITE":"AFETR","REV_AT_EPOCH":"10089","REF_FRAME":"TEME","OBJECT_ID":"2020-035AV","MEAN_MOTION_DOT":"-0.00000156","ARG_OF_PERICENTER":"72.8258"},{"TIME_SYSTEM":"UTC","RCS_SIZE":"LARGE","NORAD_CAT_ID":"45701","LAUNCH_DATE":"2020-06-04","BSTAR":"0.00003039700000","PERIAPSIS":"545.840","EPOCH":"2022-03-22T22:02:53.165760","CENTER_NAME":"EARTH","TLE_LINE2":"2 45701  53.0554  55.9023 0001972  51.5333 308.5833 15.06402608100939","RA_OF_ASC_NODE":"55.9023","FILE":"3370190","MEAN_MOTION":"15.06402608","OBJECT_NAME":"STARLINK-1403","ECCENTRICITY":"0.00019720","SEMIMAJOR_AXIS":"6925.341","INCLINATION":"53.0554","ELEMENT_SET_NO":"999","PERIOD":"95.592","APOAPSIS":"548.571","MEAN_ANOMALY":"308.5833","MEAN_MOTION_DDOT":"0.0000000000000","CLASSIFICATION_TYPE":"U","TLE_LINE1":"1 45701U 20035AW  22081.91867090  .00000171  00000-0  30397-4 0  9995","OBJECT_TYPE":"PAYLOAD","MEAN_ELEMENT_THEORY":"SGP4","EPHEMERIS_TYPE":"0","COUNTRY_CODE":"US","SITE":"AFETR","GP_ID":"199426807","DECAY_DATE":null,"OBJECT_ID":"2020-035AW","ARG_OF_PERICENTER":"51.5333","MEAN_MOTION_DOT":"0.00000171","REF_FRAME":"TEME","REV_AT_EPOCH":"10093"},{"GP_ID":"199426059","SITE":"AFETR","DECAY_DATE":null,"OBJECT_ID":"2020-035AX","ARG_OF_PERICENTER":"59.0272","MEAN_MOTION_DOT":"-0.00001790","REF_FRAME":"TEME","REV_AT_EPOCH":"10092","MEAN_MOTION_DDOT":"0.0000000000000","MEAN_ANOMALY":"301.0885","TLE_LINE1":"1 45702U 20035AX  22081.83390947 -.00001790  00000-0 -10128-3 0  9998","CLASSIFICATION_TYPE":"U","APOAPSIS":"548.405","OBJECT_TYPE":"PAYLOAD","MEAN_ELEMENT_THEORY":"SGP4","COUNTRY_CODE":"US","EPHEMERIS_TYPE":"0","FILE":"3370190","MEAN_MOTION":"15.06397670","TLE_LINE2":"2 45702  53.0554  56.2908 0001710  59.0272 301.0885 15.06397670100927","RA_OF_ASC_NODE":"56.2908","OBJECT_NAME":"STARLINK-1405","ECCENTRICITY":"0.00017100","PERIOD":"95.592","SEMIMAJOR_AXIS":"6925.356","INCLINATION":"53.0554","ELEMENT_SET_NO":"999","NORAD_CAT_ID":"45702","TIME_SYSTEM":"UTC","RCS_SIZE":"LARGE","LAUNCH_DATE":"2020-06-04","BSTAR":"-0.00010128000000","EPOCH":"2022-03-22T20:00:49.778208","CENTER_NAME":"EARTH","PERIAPSIS":"546.036"},{"OBJECT_NAME":"STARLINK-1407","ECCENTRICITY":"0.00015910","SEMIMAJOR_AXIS":"6925.357","INCLINATION":"53.0558","ELEMENT_SET_NO":"999","PERIOD":"95.592","TLE_LINE2":"2 45703  53.0558  57.2122 0001591  60.7077 299.4070 15.06397265100892","RA_OF_ASC_NODE":"57.2122","FILE":"3370190","MEAN_MOTION":"15.06397265","PERIAPSIS":"546.120","EPOCH":"2022-03-22T15:08:52.891872","CENTER_NAME":"EARTH","TIME_SYSTEM":"UTC","RCS_SIZE":"LARGE","NORAD_CAT_ID":"45703","LAUNCH_DATE":"2020-06-04","BSTAR":"0.00012437000000","OBJECT_ID":"2020-035AY","ARG_OF_PERICENTER":"60.7077","MEAN_MOTION_DOT":"0.00001571","REF_FRAME":"TEME","REV_AT_EPOCH":"10089","SITE":"AFETR","GP_ID":"199425808","DECAY_DATE":null,"MEAN_ELEMENT_THEORY":"SGP4","EPHEMERIS_TYPE":"0","COUNTRY_CODE":"US","APOAPSIS":"548.324","MEAN_ANOMALY":"299.4070","MEAN_MOTION_DDOT":"0.0000000000000","TLE_LINE1":"1 45703U 20035AY  22081.63116773  .00001571  00000-0  12437-3 0  9990","CLASSIFICATION_TYPE":"U","OBJECT_TYPE":"PAYLOAD"},{"OBJECT_TYPE":"PAYLOAD","TLE_LINE1":"1 45704U 20035AZ  22081.85599445  .00000580  00000-0  57830-4 0  9992","CLASSIFICATION_TYPE":"U","MEAN_ANOMALY":"300.6825","MEAN_MOTION_DDOT":"0.0000000000000","APOAPSIS":"548.589","COUNTRY_CODE":"US","EPHEMERIS_TYPE":"0","MEAN_ELEMENT_THEORY":"SGP4","DECAY_DATE":null,"GP_ID":"199426557","SITE":"AFETR","REF_FRAME":"TEME","REV_AT_EPOCH":"10051","ARG_OF_PERICENTER":"59.4359","MEAN_MOTION_DOT":"0.00000580","OBJECT_ID":"2020-035AZ","BSTAR":"0.00005783000000","LAUNCH_DATE":"2020-06-04","NORAD_CAT_ID":"45704","RCS_SIZE":"LARGE","TIME_SYSTEM":"UTC","CENTER_NAME":"EARTH","EPOCH":"2022-03-22T20:32:37.920480","PERIAPSIS":"545.844","MEAN_MOTION":"15.06398998","FILE":"3370190","RA_OF_ASC_NODE":"86.2021","TLE_LINE2":"2 45704  53.0565  86.2021 0001982  59.4359 300.6825 15.06398998100519","PERIOD":"95.592","ELEMENT_SET_NO":"999","INCLINATION":"53.0565","SEMIMAJOR_AXIS":"6925.352","OBJECT_NAME":"STARLINK-1409","ECCENTRICITY":"0.00019820"},{"OBJECT_TYPE":"PAYLOAD","MEAN_ANOMALY":"302.8514","MEAN_MOTION_DDOT":"0.0000000000000","TLE_LINE1":"1 45705U 20035BA  22081.75003874 -.00000160  00000-0  82007-5 0  9998","CLASSIFICATION_TYPE":"U","APOAPSIS":"548.662","COUNTRY_CODE":"US","EPHEMERIS_TYPE":"0","MEAN_ELEMENT_THEORY":"SGP4","DECAY_DATE":null,"GP_ID":"199427308","SITE":"AFETR","REV_AT_EPOCH":"10048","REF_FRAME":"TEME","OBJECT_ID":"2020-035BA","ARG_OF_PERICENTER":"57.2677","MEAN_MOTION_DOT":"-0.00000160","LAUNCH_DATE":"2020-06-04","BSTAR":"0.00000820070000","NORAD_CAT_ID":"45705","TIME_SYSTEM":"UTC","RCS_SIZE":"LARGE","EPOCH":"2022-03-22T18:00:03.347136","CENTER_NAME":"EARTH","PERIAPSIS":"545.753","FILE":"3370190","MEAN_MOTION":"15.06401939","TLE_LINE2":"2 45705  53.0538  86.6707 0002100  57.2677 302.8514 15.06401939100482","RA_OF_ASC_NODE":"86.6707","PERIOD":"95.592","SEMIMAJOR_AXIS":"6925.343","INCLINATION":"53.0538","ELEMENT_SET_NO":"999","OBJECT_NAME":"STARLINK-1410","ECCENTRICITY":"0.00021000"},{"PERIAPSIS":"545.984","EPOCH":"2022-03-22T08:14:53.134656","CENTER_NAME":"EARTH","TIME_SYSTEM":"UTC","RCS_SIZE":"LARGE","NORAD_CAT_ID":"45706","LAUNCH_DATE":"2020-06-04","BSTAR":"-0.00004140900000","OBJECT_NAME":"STARLINK-1411","ECCENTRICITY":"0.00017860","SEMIMAJOR_AXIS":"6925.356","INCLINATION":"53.0549","ELEMENT_SET_NO":"999","PERIOD":"95.592","TLE_LINE2":"2 45706  53.0549  58.4896 0001786  53.9740 306.1414 15.06397729100841","RA_OF_ASC_NODE":"58.4896","FILE":"3369829","MEAN_MOTION":"15.06397729","MEAN_ELEMENT_THEORY":"SGP4","EPHEMERIS_TYPE":"0","COUNTRY_CODE":"US","APOAPSIS":"548.457","MEAN_MOTION_DDOT":"0.0000000000000","MEAN_ANOMALY":"306.1414","CLASSIFICATION_TYPE":"U","TLE_LINE1":"1 45706U 20035BB  22081.34367054 -.00000898  00000-0 -41409-4 0  9996","OBJECT_TYPE":"PAYLOAD","OBJECT_ID":"2020-035BB","ARG_OF_PERICENTER":"53.9740","MEAN_MOTION_DOT":"-0.00000898","REV_AT_EPOCH":"10084","REF_FRAME":"TEME","SITE":"AFETR","GP_ID":"199394792","DECAY_DATE":null},{"RA_OF_ASC_NODE":"58.5143","TLE_LINE2":"2 45707  53.0554  58.5143 0001612  54.6733 305.4406 15.06392668100853","MEAN_MOTION":"15.06392668","FILE":"3369829","OBJECT_NAME":"STARLINK-1412","ECCENTRICITY":"0.00016120","ELEMENT_SET_NO":"999","INCLINATION":"53.0554","SEMIMAJOR_AXIS":"6925.371","PERIOD":"95.593","TIME_SYSTEM":"UTC","RCS_SIZE":"LARGE","NORAD_CAT_ID":"45707","BSTAR":"-0.00007783100000","LAUNCH_DATE":"2020-06-04","PERIAPSIS":"546.120","CENTER_NAME":"EARTH","EPOCH":"2022-03-22T08:09:34.866432","SITE":"AFETR","GP_ID":"199393046","DECAY_DATE":null,"ARG_OF_PERICENTER":"54.6733","MEAN_MOTION_DOT":"-0.00001440","OBJECT_ID":"2020-035BC","REV_AT_EPOCH":"10085","REF_FRAME":"TEME","APOAPSIS":"548.352","CLASSIFICATION_TYPE":"U","TLE_LINE1":"1 45707U 20035BC  22081.33998688 -.00001440  00000-0 -77831-4 0  9991","MEAN_MOTION_DDOT":"0.0000000000000","MEAN_ANOMALY":"305.4406","OBJECT_TYPE":"PAYLOAD","MEAN_ELEMENT_THEORY":"SGP4","EPHEMERIS_TYPE":"0","COUNTRY_CODE":"US"},{"EPHEMERIS_TYPE":"0","COUNTRY_CODE":"US","MEAN_ELEMENT_THEORY":"SGP4","OBJECT_TYPE":"PAYLOAD","APOAPSIS":"548.352","MEAN_MOTION_DDOT":"0.0000000000000","MEAN_ANOMALY":"299.8290","CLASSIFICATION_TYPE":"U","TLE_LINE1":"1 45708U 20035BD  22081.64591520  .00001202  00000-0  99570-4 0  9998","REV_AT_EPOCH":"10090","REF_FRAME":"TEME","OBJECT_ID":"2020-035BD","ARG_OF_PERICENTER":"60.2861","MEAN_MOTION_DOT":"0.00001202","DECAY_DATE":null,"SITE":"AFETR","GP_ID":"199427058","PERIAPSIS":"546.093","EPOCH":"2022-03-22T15:30:07.073280","CENTER_NAME":"EARTH","LAUNCH_DATE":"2020-06-04","BSTAR":"0.00009957000000","TIME_SYSTEM":"UTC","RCS_SIZE":"LARGE","NORAD_CAT_ID":"45708","SEMIMAJOR_AXIS":"6925.357","INCLINATION":"53.0544","ELEMENT_SET_NO":"999","PERIOD":"95.592","OBJECT_NAME":"STARLINK-1418","ECCENTRICITY":"0.00016310","TLE_LINE2":"2 45708  53.0544  57.1331 0001631  60.2861 299.8290 15.06397091100901","RA_OF_ASC_NODE":"57.1331","FILE":"3370190","MEAN_MOTION":"15.06397091"},{"MEAN_ELEMENT_THEORY":"SGP4","EPHEMERIS_TYPE":"0","COUNTRY_CODE":"US","APOAPSIS":"548.374","MEAN_MOTION_DDOT":"0.0000000000000","MEAN_ANOMALY":"309.6688","TLE_LINE1":"1 45709U 20035BE  22081.41738705 -.00001948  00000-0 -11191-3 0  9993","CLASSIFICATION_TYPE":"U","OBJECT_TYPE":"PAYLOAD","OBJECT_ID":"2020-035BE","ARG_OF_PERICENTER":"50.4446","MEAN_MOTION_DOT":"-0.00001948","REF_FRAME":"TEME","REV_AT_EPOCH":"10082","SITE":"AFETR","GP_ID":"199394542","DECAY_DATE":null,"PERIAPSIS":"546.099","EPOCH":"2022-03-22T10:01:02.241120","CENTER_NAME":"EARTH","TIME_SYSTEM":"UTC","RCS_SIZE":"LARGE","NORAD_CAT_ID":"45709","LAUNCH_DATE":"2020-06-04","BSTAR":"-0.00011191000000","ECCENTRICITY":"0.00016430","OBJECT_NAME":"STARLINK-1421","SEMIMAJOR_AXIS":"6925.371","INCLINATION":"53.0556","ELEMENT_SET_NO":"999","PERIOD":"95.593","TLE_LINE2":"2 45709  53.0556  58.1670 0001643  50.4446 309.6688 15.06392525100824","RA_OF_ASC_NODE":"58.1670","FILE":"3369829","MEAN_MOTION":"15.06392525"}];
